,empty_slots,free_bikes,ID,Latitude,Longitude,Name,Address
0,3,0,2399b74c7c07d3a02e5e2a3e90460b7c,45.51195046,-122.6141596,SE 47th at Hawthorne,"1527, Southeast 47th Avenue, Richmond, Portland, Multnomah County, Oregon, 97215, United States of America"
1,5,1,e9aef274a3bf9dd43ff7e7f7352b250c,45.54827571,-122.6111636,NE 50th at Fremont,"5024, Northeast Fremont Street, Rose City Park, Portland, Multnomah County, Oregon, 97213, United States of America"
2,5,1,5037e02fd534d0164d7d2d8bcfcaa20c,45.553917,-122.6020709,NE Cully at Skidmore,"Northeast Skidmore Street, Cully, Portland, Multnomah County, Oregon, 97218, United States of America"
3,3,0,97d7a7aeaf214cfedcf658e21189652b,45.51658489,-122.6160378,SE Belmont at 45th,"Red Square Cafe, 4505, Southeast Belmont Street, Hawthorne, Sunnyside, Portland, Multnomah County, Oregon, 97215, United States of America"
4,0,3,ff54bba5b85cda833a23610dfc64fddc,45.49333654,-122.6233971,SE 37th at Gladstone,"Gladstone Street Pizza, 3813, Southeast Gladstone Street, Creston-Kenilworth, Portland, Multnomah County, Oregon, 97202, United States of America"
5,8,2,4e47f8ec8affacbb3cf7a3eaa3a18bfd,45.50280906,-122.6535398,SE Gideon at 12th Ave MAX station,"1238, Southeast Gideon Street, Ladd's Addition, Hosford-Abernethy, Portland, Multnomah County, Oregon, 97202, United States of America"
6,15,2,c36ba913465bae461bf387f50ffa68b7,45.52175423,-122.6810794,SW 10th at Harvey Milk,"Radish Underground, 414, Southwest 10th Avenue, Portland Downtown, Swan Island, Portland, Multnomah County, Oregon, 97205, United States of America"
7,7,10,594fc7d98955eecf3d28523e9aa548ab,45.50512504,-122.6533681,SE Elliott at Division,"Ladd's Addition Historic District, Southeast Hawthorne Boulevard, Central East Side, Buckman, Portland, Multnomah County, Oregon, 97214, United States of America"
8,4,2,960438641218bcfc19bc635c4ee698a5,45.50356665,-122.6395279,SE Clinton at 26th,"Hosford-Abernethy, Portland, Multnomah County, Oregon, 97214, United States of America"
9,10,2,95de685573514cbb4fd72a26a8200304,45.51623176,-122.6360679,SE 29th at Belmont,"915, Southeast 29th Avenue, Belmont, Sunnyside, Portland, Multnomah County, Oregon, 97214, United States of America"
10,12,4,39894b2fbf5e46469dc0f9f4d350640b,45.51147657,-122.6662856,SE Clay at Water,"Southeast Clay Street, Hosford-Abernethy, Portland, Multnomah County, Oregon, 97258, United States of America"
11,11,6,dcdba093c08a021f861e03ae91bfd7ec,45.51844688,-122.651685,SE 14th at Stark,"Washington High School, 531, Southeast 14th Avenue, Central East Side, Buckman, Portland, Multnomah County, Oregon, 97214, United States of America"
12,3,6,d0d1428b33b2f10722d3546bd4284c2c,45.51515295,-122.665776,SE Water at Taylor,"80, Southeast Taylor Street, King Taylor Business Center, Buckman, Portland, Multnomah County, Oregon, 97214, United States of America"
13,9,2,91679b1affeab937801e62ac1e710379,45.51645917,-122.6189983,SE Belmont at 42nd,"4210, Southeast Belmont Street, Hawthorne, Sunnyside, Portland, Multnomah County, Oregon, 97215, United States of America"
14,5,0,e1ab0ce5d24a113323ec3595bdc83a17,45.52373453,-122.6372065,NE 28th at Couch,"Beulahland, Northeast 28th Avenue, Kerns, Portland, Multnomah County, Oregon, 97232, United States of America"
15,4,8,878fe700322ba9b87da8e6ae33cb5525,45.52536699,-122.6725459,NW 2nd at Everett,"Biketown PDX NW 2nd at Everett, Northwest 2nd Avenue, Chinatown, Old Town, Portland, Multnomah County, Oregon, 97240, United States of America"
16,8,2,9e24ba67f3bc53787e2566670d7379bc,45.52976024,-122.6966429,NW 22nd at Lovejoy,"Northwest Lovejoy & 22nd, Northwest District, Portland, Multnomah County, Oregon, 97205, United States of America"
17,12,6,461a91f3d17378df2a989beaa90bd225,45.53232501,-122.6824299,NW 11th at The Fields,"Northwest 11th at The Fields, Northwest Overton Street, Block 17, Pearl District, Portland, Multnomah County, Oregon, 97209, United States of America"
18,16,2,e8216c4b64f67f1b5f0dedb3ecee7b3d,45.52196048,-122.6896772,SW Morrison at 18th,"1750, Southwest Morrison Street, Goose Hollow, Portland, Multnomah County, Oregon, 97205, United States of America"
19,6,0,78778c4302c71d41398de74d63754c70,45.51299715,-122.6567262,SE 9th at Madison,"Custom Stamping, 1340, Southeast 9th Avenue, Central East Side, Buckman, Portland, Multnomah County, Oregon, 97214, United States of America"
20,15,2,3c209c6d1ed5b246c2054221de49c1cc,45.52374151,-122.6818129,NW Couch at 11th,"The Henry, 1025, Northwest Couch Street, The Brewery Blocks, Pearl District, Portland, Multnomah County, Oregon, 97209, United States of America"
21,7,3,9a1196a102fcb4154b7dcaa4cb4ab92a,45.52634601,-122.6941484,NW Glisan at 21st,"Alphabet Historic District, Northwest 24th Avenue, Northwest District, Portland, Multnomah County, Oregon, 97210, United States of America"
22,5,7,6f9d73bf5f281d339d58e6c14d2d93ad,45.52826831,-122.6945615,NW 21st at Johnson,"Alphabet Historic District, Northwest 24th Avenue, Northwest District, Portland, Multnomah County, Oregon, 97210, United States of America"
23,15,0,8a41a1f4c95539d13801e923e5c5f269,45.56282546,-122.6747467,N Killingsworth at Albina,"Moriarty Arts and Humanities Building, 705, North Killingsworth Street, Humboldt, Portland, Multnomah County, Oregon, 97217, United States of America"
24,9,4,fd51ad5bbf138465fac3a76c2f3e9f6b,45.5286366,-122.6820195,NW Johnson at Jamison Square,"Tanner Place, 1030, Northwest Johnson Street, Pearl District, Portland, Multnomah County, Oregon, 97209, United States of America"
25,6,6,bca90ae6081a56c3451b1cb0c99b89aa,45.5282777,-122.6766282,NW Station at Irving,"Cairns, Northwest Station Way, Chinatown, Old Town, Portland, Multnomah County, Oregon, 97208, United States of America"
26,8,6,9f67fd74409ffd7baa0e5a87bd8810e2,45.53211645,-122.6986304,NW 23rd at Overton,"Biketown PDX NW 23rd at Overton, Northwest 23rd Avenue, Northwest District, Portland, Multnomah County, Oregon, 97210, United States of America"
27,13,5,bbbd86bb5f6d2cd4f7ac5b503945d554,45.5475928,-122.6667604,N Williams at Fremont,"North Williams at Fremont, North Williams Avenue, Albina, Eliot, Portland, Multnomah County, Oregon, 97227, United States of America"
28,12,6,86996358747ffd076ba01f34af637cf5,45.5027677,-122.6714408,Tilikum West at SW Moody,"South Waterfront/Southwest Moody, South Portland, Portland, Multnomah County, Oregon, 97258, United States of America"
29,11,5,1c79a810e685de99e6f93606040bbebf,45.52914205,-122.6987028,NW Kearney at 23rd,"Alphabet Historic District, Northwest 24th Avenue, Northwest District, Portland, Multnomah County, Oregon, 97210, United States of America"
30,17,1,c56abf376d7ba1bbc9de3ab59efc8588,45.54998583,-122.6756573,N Mississippi at Beech,"Bridge City Comics, 3725, North Mississippi Avenue, Mississippi, Boise, Portland, Multnomah County, Oregon, 97227, United States of America"
31,11,1,4340a320c7fb47f4a93d068ef607ed29,45.55076344,-122.6668663,N Failing at Williams,"North Failing at Williams, North Failing Street, Mississippi, Boise, Portland, Multnomah County, Oregon, 97227, United States of America"
32,10,2,746f43bc5fafeba7b8e2484961aedbcc,45.54107815,-122.6769716,N Russell at Interstate,"Widmer Brothers Brewing, 955, North Russell Street, Albina, Eliot, Portland, Multnomah County, Oregon, 97227, United States of America"
33,13,5,f96111beae829639fe713081c167fedc,45.52142066,-122.6726291,SW 2nd at Pine,"Portland Skidmore/Old Town Historic District, Northwest Naito Parkway, Chinatown, Old Town, Portland, Multnomah County, Oregon, 97240, United States of America"
34,14,1,ea63b6e276773b07258d184133fbc6c8,45.52279251,-122.6840124,SW Harvey Milk at Burnside,"People's Bike Library of Portland, Southwest 13th Avenue, Portland Downtown, Pearl District, Portland, Multnomah County, Oregon, 97209, United States of America"
35,12,15,cc48d45f9cd3afea3b782139292073af,45.50910258,-122.6735169,SW River at Montgomery,"320, South Montgomery Street, Portland Downtown, Portland, Multnomah County, Oregon, 97201, United States of America"
36,8,4,6e332b01bae8b90df74dac3909aae13f,45.5123205,-122.6789108,SW Market at Keller Fountain Park,"Southwest Market at Keller Fountain Park, Southwest Market Street, Portland Downtown, Portland, Multnomah County, Oregon, 97258, United States of America"
37,3,0,67351d736219f6834698bb302ad054d7,45.50473239,-122.62528,SE 37th at Division,"2509, Southeast 37th Avenue, Richmond, Portland, Multnomah County, Oregon, 97202, United States of America"
38,11,1,1050337b65ec6fe7508a406234c2727a,45.54830706,-122.6136768,NE 48th at Fremont,"Alameda Brewhouse, 4765, Northeast Fremont Street, Rose City Park, Portland, Multnomah County, Oregon, 97213, United States of America"
39,0,8,c7d6d38bf9fbfe21cda48ef147eb07cf,45.51189243,-122.6113057,SE 50th at Hawthorne,"Sapphire Hotel, 5008, Southeast Hawthorne Boulevard, Mount Tabor, Portland, Multnomah County, Oregon, 97215, United States of America"
40,7,9,e65021258e7e40cd2dbf8655b1db995a,45.53290424,-122.68626,NW Pettygrove at 15th,"1450, Northwest Pettygrove Street, Pearl District, Portland, Multnomah County, Oregon, 97209, United States of America"
41,2,1,f54ff9937fadde7367201097bf05ac44,45.52642975,-122.6347187,NE 30th at Glisan,"LaurelThirst Public House, Northeast Glisan Street, Laurelhurst, Portland, Multnomah County, Oregon, 97232, United States of America"
42,2,1,9f4702931aa590a770c06442c299929f,45.50523618,-122.6121104,SE 49th at Division,"Beads at Dusti Creek, 4848, Southeast Division Street, Richmond, Portland, Multnomah County, Oregon, 97206, United States of America"
43,2,1,9362210f7594103e084bccf1a14ff8b9,45.56267617,-122.6946044,N Burrage at Killingsworth,"5430, North Burrage Avenue, Arbor Lodge, Portland, Multnomah County, Oregon, 97217, United States of America"
44,11,1,ba290ad76d5e457a699fd8defa70442f,45.53893649,-122.6432884,NE 22nd at Thompson (Irvington Tennis Club),"Irvington Historic District, Northeast Morris Street, Albina, Eliot, Portland, Multnomah County, Oregon, 97227, United States of America"
45,10,1,b58b544fbc568555248cc32419111a3e,45.51649676,-122.6307517,SE Belmont at 33rd,"HMart, 3301, Southeast Belmont Street, Belmont, Sunnyside, Portland, Multnomah County, Oregon, 97214, United States of America"
46,5,12,d887bb27da64bb501118419d06dcc46a,45.51633325,-122.6566324,SE 9th at Belmont,"Rogue East Side Pub & Pilot Brewery, 928, Southeast 9th Avenue, Central East Side, Buckman, Portland, Multnomah County, Oregon, 97214, United States of America"
47,12,0,7a385701e114c447336cbeda5685152c,45.55335313,-122.6669146,N Mason at Williams,"120, North Mason Street, Mississippi, Boise, Portland, Multnomah County, Oregon, 97217, United States of America"
48,8,5,12a7123f7768e122110052bff3126a92,45.51222277,-122.6454261,SE Hawthorne at 20th,"2003, Southeast Hawthorne Boulevard, Ladd's Addition, Hosford-Abernethy, Portland, Multnomah County, Oregon, 97214, United States of America"
49,1,1,2e9026b0a17783c8944d4e5b3f9109ca,45.54125782,-122.6966717,NW Nicolai at Sherlock,"Ristretto Roasters, 2181, Northwest Nicolai Street, Northwest District, Portland, Multnomah County, Oregon, 97210, United States of America"
50,3,0,ba0d83923470969a2a12048043f4d486,45.52643433,-122.6362449,NE 28th at Glisan,"Migration Brewery, Northeast Glisan Street, Laurelhurst, Portland, Multnomah County, Oregon, 97232, United States of America"
51,3,1,937122f1db9dba7e6c4f9caededb959b,45.55905507,-122.6427104,NE Alberta at 22nd,"Pine State Biscuits, 2204, Northeast Alberta Street, Alberta, Vernon, Portland, Multnomah County, Oregon, 97211, United States of America"
52,5,0,6688994dd0718b54ef337dec1c28ae93,45.55908767,-122.6407517,NE Alberta at 24th,"2405, Northeast Alberta Street, Alberta, Vernon, Portland, Multnomah County, Oregon, 97211, United States of America"
53,6,5,794e8ea280becad91f3ece39de5c5fa9,45.53561394,-122.6636343,NE 2nd at Schuyler,"1732, Northeast 2nd Avenue, Lloyd District, Portland, Multnomah County, Oregon, 97212, United States of America"
54,8,0,602d9c95b0deaf57bfe889557e35947c,45.56197102,-122.6820369,N Interstate at Willamette,"5420, North Interstate Avenue, Overlook, Portland, Multnomah County, Oregon, 97217, United States of America"
55,11,3,5252283d5db570aa3761409273cbe65f,45.49429475,-122.6719048,SW Moody at Thomas,"South Thomas Street, The Matisse, South Portland, Portland, Multnomah County, Oregon, 97258, United States of America"
56,5,1,3661e38ef8adca3f432d3f8796d8d1ff,45.53146071,-122.659741,NE Multnomah at Grand,"NE Multnomah at Grand, Northeast Multnomah Street, Lloyd District, Portland, Multnomah County, Oregon, 97240, United States of America"
57,8,0,bfb216d85303782a336764eaf72daf06,45.53140997,-122.6574612,NE Multnomah at 9th,"Northeast Multnomah at 9th, Northeast Multnomah Street, Lloyd District, Portland, Multnomah County, Oregon, 97212, United States of America"
58,17,1,c909fc67ebb0aed134bee868385023e9,45.55645437,-122.6603794,NE Going at Grand,"NE Grand at Going, Northeast Going Street, King, Portland, Multnomah County, Oregon, 97211, United States of America"
59,17,1,7c8ef202e70a59639949df5a1a53b9cb,45.52440674,-122.6497686,NE Sandy at 16th,"Big Town Hero, Northeast Sandy Boulevard, Kerns, Portland, Multnomah County, Oregon, 97232, United States of America"
60,8,3,bc40f10282404690ae9ff2c7b1d42a29,45.52297292,-122.6434118,NE 22nd at Burnside,"USPS, Northeast 22nd Avenue, Kerns, Portland, Multnomah County, Oregon, 97232, United States of America"
61,0,19,45e2f2e17564281d03c6dc27c1c039f7,45.50624163,-122.6633379,SE 2nd Pl at Tilikum Way,"Southwest 2nd Place at Tilikum, Southeast 2nd Place, Hosford-Abernethy, Portland, Multnomah County, Oregon, 97258, United States of America"
62,13,5,b6bbfb34ac76de31c51f84d285290660,45.51202353,-122.6363119,SE 29th at Hawthorne,"2835, Southeast Hawthorne Boulevard, Belmont, Sunnyside, Portland, Multnomah County, Oregon, 97214, United States of America"
63,3,0,d6395a890124e71b96a27df688c16f08,45.55916922,-122.6514316,NE Alberta at 14th,"Cupcake Jones, 1405, Northeast Alberta Street, Alberta, Vernon, Portland, Multnomah County, Oregon, 97211, United States of America"
64,5,0,59deea633d7c461c66ec2f32bc05aaf5,45.55913676,-122.6554307,NE Alberta at 10th,"Eritrean Community Center, 1006, Northeast Alberta Street, King, Portland, Multnomah County, Oregon, 97211, United States of America"
65,2,3,c48a2eff4386cf40a9c6adf82d5d310d,45.52358836,-122.6619177,NE Couch at MLK,"Northeast Martin Luther King Junior Boulevard, Kerns, Portland, Multnomah County, Oregon, 97240, United States of America"
66,12,6,4e302e4ae6c93f53f151a9e3e9208c12,45.52507854,-122.6775563,NW Broadway at Everett,"224, Northwest Broadway, Chinatown, Old Town, Portland, Multnomah County, Oregon, 97209, United States of America"
67,12,5,4ee74640d3b3a0832b8a39bbd756a55d,45.5048393,-122.6296306,SE 34th at Division,"Ava Gene's, 3377, Southeast Division Street, Richmond, Portland, Multnomah County, Oregon, 97202, United States of America"
68,16,0,b749f9da504d4f178551ad107dc8f7ac,45.50468892,-122.6345551,SE 30th at Division,"2523, Southeast 30th Avenue, Richmond, Portland, Multnomah County, Oregon, 97202, United States of America"
69,7,2,043399190499833843cf731ea5114fae,45.51544427,-122.6846749,SW 10th at Columbia,"Safeway, 1010, Southwest Jefferson Street, Portland Downtown, Portland, Multnomah County, Oregon, 97201, United States of America"
70,8,1,6163a9f4a45b3f587b5d12d525cade28,45.51507401,-122.6870298,SW 12th at Clay,"The Cameron, 1500, Southwest 12th Avenue, Portland Downtown, Northwest Industrial District, Portland, Multnomah County, Oregon, 97201, United States of America"
71,15,3,8572e55ba4559d7bab5f141af15d869a,45.50971347,-122.6777159,SW Harrison at 1st,"Southwest Harrison Street, Portland Downtown, Portland, Multnomah County, Oregon, 97258, United States of America"
72,10,7,7ce26ab11858fb213f09c800af23c62f,45.49913657,-122.6716433,SW Moody at Aerial Tram Terminal,"OHSU Center For Health And Healing, 3303, Southwest Bond Avenue, South Portland, Portland, Multnomah County, Oregon, 97239, United States of America"
73,0,17,f50b7bd1c728c9f763dd6bf64654077b,45.53550403,-122.7006608,NW Thurman at 24th,"Biketown PDX NW Thurman at 24th, Northwest Thurman Street, Northwest District, Portland, Multnomah County, Oregon, 97210, United States of America"
74,0,14,8f96a969c8b5ef15c175042c8b78d87e,45.53409115,-122.6949424,NW Raleigh at 21st,"Biketown PDX NW Raleigh at 21st, Northwest Raleigh Street, Northwest District, Portland, Multnomah County, Oregon, 97209, United States of America"
75,9,7,f12f0be5f2d400caac3a11c20676b942,45.53083126,-122.6815957,NW Marshall at Tanner Springs Park,"Northwest Marshall Street, Pearl District, Portland, Multnomah County, Oregon, 97208, United States of America"
76,3,13,fb747bf1d85b1db5a9560806f4fd1637,45.53080401,-122.6844227,NW 13th at Marshall,"Northwest 13th at Marshall, Northwest 13th Avenue, Pearl District, Portland, Multnomah County, Oregon, 97209, United States of America"
77,7,4,45b602edfc3f361787b4b89ff47dafdc,45.53142501,-122.6895659,NW 18th at Northrup,"Pro Photo Supply Rentals, Northwest 18th Avenue, Northwest District, Portland, Multnomah County, Oregon, 97209, United States of America"
78,1,4,f799624bc8721455896a1d8fac69dd84,45.55902314,-122.6355462,NE Alberta at 29th/30th,"Cord, 2916, Northeast Alberta Street, Alberta, Vernon, Portland, Multnomah County, Oregon, 97211, United States of America"
79,0,4,8cbda5be025024886b6bc836204d2ca6,45.56453067,-122.6305372,NE 33rd at Jarrett (Kennedy School),"Kennedy School, 5736, Northeast 33rd Avenue, Concordia, Portland, Multnomah County, Oregon, 97211, United States of America"
80,2,1,8fd922f4d46ab772e57abb1b1e918cfc,45.55568352,-122.6506644,NE 14th Pl at Prescott,"4520, Northeast 14th Place, Sabin, Portland, Multnomah County, Oregon, 97211, United States of America"
81,2,4,7ca3bd26c497b161f5bceaad7b08c349,45.54828551,-122.6508106,NE Fremont at 15th,"1410, Northeast Fremont Street, Sabin, Portland, Multnomah County, Oregon, 97212, United States of America"
82,2,1,b3b30cad1c917f55bb42366392c82cc7,45.56251948,-122.6770306,N Michigan at Killingsworth,"Bad Habit Room, 5433, North Michigan Avenue, Humboldt, Portland, Multnomah County, Oregon, 97217, United States of America"
83,17,1,9c2a28eb03ad0f62bdadfcffd5231b96,45.55522233,-122.6818612,N Prescott at Interstate,"1406, North Prescott Street, Overlook, Portland, Multnomah County, Oregon, 97217, United States of America"
84,11,0,c50853736b121fe1039643d33a0deba7,45.52649493,-122.6416328,NE Glisan at 24th,"Uno Mas Taquiza, 2337, Northeast Glisan Street, Laurelhurst, Portland, Multnomah County, Oregon, 97232, United States of America"
85,10,4,d709db852a9d2e94c2ffb5d28c5a0723,45.53086696,-122.6658887,NE Wheeler at Multnomah,"1, North Multnomah Street, Lloyd District, Portland, Multnomah County, Oregon, 97227, United States of America"
86,10,2,09979040d1669abc1412a581f8411be4,45.55458563,-122.6755413,N Mississippi at Skidmore,"North Mississippi at Skidmore, North Mississippi Avenue, Mississippi, Boise, Portland, Multnomah County, Oregon, 97227, United States of America"
87,17,1,0718c230d62c6b77acb7c5b91952ccd2,45.55941042,-122.6685226,N Vancouver at Alberta,"Humboldt Gardens, 5033, North Vancouver Avenue, Humboldt, Portland, Multnomah County, Oregon, 97217, United States of America"
88,14,2,97ab7cea7dd58e4a91e15b8dd820609f,45.52487653,-122.6965141,NW Everett at 22nd,"Alphabet Historic District, Northwest 24th Avenue, Northwest District, Portland, Multnomah County, Oregon, 97210, United States of America"
89,4,8,09287ecbf23e2ea0e6b0a34420bd95f0,45.53508224,-122.6505639,NE 15th at Broadway,"Peet's Coffee, 1441, Northeast Broadway, Lloyd District, Portland, Multnomah County, Oregon, 97232, United States of America"
90,13,4,33c4fe191a7295ce8f514a6d6a867b38,45.51936283,-122.6359928,SE 29th at Stark,"2900, Southeast Stark Street, Kerns, Portland, Multnomah County, Oregon, 97214, United States of America"
91,13,4,c59f2188b6b6361cb3e6282e6cdbd77c,45.5033655,-122.6447314,SE Clinton at 21st,"Yama Sushi & Izakaya, 2038, Southeast Clinton Street, Ladd's Addition, Hosford-Abernethy, Portland, Multnomah County, Oregon, 97202, United States of America"
92,10,2,18ea144a372c6633356ec958674c4edb,45.51636144,-122.6460457,SE Belmont at 20th,"1919, Southeast Belmont Street, Central East Side, Buckman, Portland, Multnomah County, Oregon, 97214, United States of America"
93,5,0,9eee5240994d6cc53a70ffe62976eac6,45.5627419,-122.6889932,N Killingsworth at Gay,"2103-2105, North Killingsworth Street, Overlook, Portland, Multnomah County, Oregon, 97217, United States of America"
94,6,6,c2e7fa1185629bfb55cdf350934f47f5,45.50936198,-122.6812121,SW 4th at College,"Portland State University, Robert Hugh Baldock Freeway, South Portland, Portland, Multnomah County, Oregon, 97258, United States of America"
95,2,1,f78a0668cfe64b1743231aef78bbaaa7,45.56274555,-122.6480594,NE 17th at Killingsworth,"5515, Northeast 17th Avenue, Alberta, Vernon, Portland, Multnomah County, Oregon, 97211, United States of America"
96,2,6,e9f349f62ffca2707d9858d84b08f7c2,45.56271655,-122.6350486,NE Killingsworth at 30th,"DAME, 2930, Northeast Killingsworth Street, Concordia, Portland, Multnomah County, Oregon, 97211, United States of America"
97,5,9,ef16230eca24142966cb1f14f59267f6,45.52279251,-122.6566163,SE 9th at Burnside,"2, Southeast 9th Avenue, Central East Side, Buckman, Portland, Multnomah County, Oregon, 97214, United States of America"
98,4,4,a69c398abbacf9fe6f78931a6fe45252,45.51186486,-122.6210475,SE 40th at Hawthorne,"New Seasons Market, 4034, Southeast Hawthorne Boulevard, Hawthorne, Sunnyside, Portland, Multnomah County, Oregon, 97214, United States of America"
99,5,3,2f101b48d941d8a743ab0e92fca124b3,45.52771962,-122.6603526,Metro Campus,"Apotheker Plaza, Lloyd District, Portland, Multnomah County, Oregon, United States of America"
100,8,0,cb7232886a0fe7fe7c28e2487a709096,45.53400578,-122.6555675,NE 10th at Halsey,"The Morland, 1530, Northeast 10th Avenue, Lloyd District, Portland, Multnomah County, Oregon, 97232, United States of America"
101,8,0,661bbf55266b02da765600f3e0744020,45.53966541,-122.6118851,NE 50th at Sandy,"Rose City Park Post Office, 2425, Northeast 50th Avenue, Rose City Park, Portland, Multnomah County, Oregon, 97213, United States of America"
102,6,2,2d3e3da88629e260e8abe5353850c967,45.5559258,-122.6008129,NE 60th at Cully,"4523, Northeast 60th Avenue, Cully, Portland, Multnomah County, Oregon, 97218, United States of America"
103,8,0,18162bf93df6312804bb1e92fa6f91d0,45.55836114,-122.6203609,NE 42nd at Alberta Court,"U.S. Bank, 4920, Northeast 42nd Avenue, Beaumont-Wilshire, Portland, Multnomah County, Oregon, 97218, United States of America"
104,6,1,6cb54e2526853f6def1bb051537fd1dc,45.52646211,-122.6093034,NE Glisan at 53rd,"5251, Northeast Glisan Street, North Tabor, Portland, Multnomah County, Oregon, 97213, United States of America"
105,6,3,d6577c0b6d128234da97c70df922855e,45.52181825,-122.7044079,SW Park at SW Wright (Oregon Holocaust Memorial),"2609, Southwest Park Place, Arlington Heights, Portland, Multnomah County, Oregon, 97205, United States of America"
106,13,2,13ac7939c5eede7b0c659a67b88b4e7f,45.52862062,-122.6905073,NW 19th at Johnson,"Alphabet Historic District, Northwest 24th Avenue, Northwest District, Portland, Multnomah County, Oregon, 97210, United States of America"
107,0,7,a9b7a395757cbc0479805e23d2f606ab,45.56250716,-122.5943702,NE Cully at Killingsworth,"5410, Northeast Cully Boulevard, Cully, Portland, Multnomah County, Oregon, 97218, United States of America"
108,4,0,4ff66f22552a40b98887836cd38abb34,45.53677138,-122.61884,NE 43rd at Sandy,"The Beverly, 2025, Northeast 44th Avenue, Hollywood, Portland, Multnomah County, Oregon, 97213, United States of America"
109,10,2,9d8f656f07962986cf453c9166c93f57,45.53479718,-122.6686594,N Wheeler at Broadway,"1698, North Wheeler Avenue, Eliot, Portland, Multnomah County, Oregon, 97227, United States of America"
110,6,0,c6d0532eec5ecdff10ac13d5c3f09679,45.49787392,-122.6375156,SE Powell Blvd at 28th,"Southeast Powell Boulevard, Creston-Kenilworth, Portland, Multnomah County, Oregon, 97202, United States of America"
111,6,1,4ea7dd2df30c317bb089b04f42be7478,45.53689808,-122.6199692,NE 42nd at Hancock,"Ragan’s Boutique, 1925;1925 ,#A, Northeast 42nd Avenue, Hollywood, Portland, Multnomah County, Oregon, 97213, United States of America"
112,13,4,3174fd88513421028b85c3f104811d18,45.51556831,-122.6738924,SW Salmon at Waterfront Park,"SW Salmon at Waterfront Park, Southwest Salmon Street, World Trade Center, Portland, Multnomah County, Oregon, 97258, United States of America"
113,4,1,0b9f3e37cb6d2810fd220455371fd879,45.50350608,-122.6110657,SE 50th at Clinton,"Tabor View Lofts, 2655, Southeast 50th Avenue, Richmond, Portland, Multnomah County, Oregon, 97206, United States of America"
114,10,1,1be6c79cce83029e52e893267b9619a5,45.5301398,-122.6546824,NE 11th at Holladay Park,"1101, Northeast Holladay Street, Lloyd District, Portland, Multnomah County, Oregon, 97232, United States of America"
115,0,5,41f87f387e56e94af9005ce8448d92a3,45.49334301,-122.6369745,SE Gladstone at 28th Place,"2800, Southeast Gladstone Street, Creston-Kenilworth, Portland, Multnomah County, Oregon, 97202, United States of America"
116,3,4,2b20ebad4f8976564637509743f946de,45.49684155,-122.6276927,SE 35th Place at Powell Blvd,"Parry Center, Southeast 35th Place, Creston-Kenilworth, Portland, Multnomah County, Oregon, 97202, United States of America"
117,3,0,2e3dfd02f85872b17964f94ddde70789,45.50225355,-122.6753193,PSU Business Accelerator,"Portland State Business Accelerator, 2828, South Corbett Avenue, South Portland, Portland, Multnomah County, Oregon, 97201, United States of America"
118,5,4,691130945fa0bcd4d442054e58d3fb8b,45.52996934,-122.6632373,NE Holladay at 2nd,"Bell Circles II, Ulsan Friendship Bell, Northeast Holladay Street, Lloyd District, Portland, Multnomah County, Oregon, 97240, United States of America"
119,0,9,b2d3d0a022930ba252e36aa03b2d1bbc,45.51434624,-122.6558371,SE Salmon St at 10th,"Oregon Brass Works, Southeast Salmon Street, Central East Side, Buckman, Portland, Multnomah County, Oregon, 97214, United States of America"
120,15,1,3c8f9c0dc8d9c35d1b8db719f4dbe71c,45.52500056,-122.6811048,NW 10th at Everett,"Northwest 10th at Everett, Northwest 10th Avenue, Pearl District, Portland, Multnomah County, Oregon, 97208, United States of America"
121,17,0,e84b2d43edee4b20f2d727b680d2fa39,45.51782551,-122.6724963,SW Naito at Morrison,"687, Southwest Naito Parkway, Portland Downtown, Portland, Multnomah County, Oregon, 97204, United States of America"
122,11,7,46413297f951382bfb7cd70b740c102e,45.51889487,-122.6774061,SW 5th at Morrison,"Southwest 5th at Morrison, Southwest 5th Avenue, Portland Downtown, Portland, Multnomah County, Oregon, 97204, United States of America"
123,6,12,cfc2482e4ab9c5c827513a8d6ca596d0,45.52269573,-122.6703492,SW Naito at Ankeny Plaza,"Portland Skidmore/Old Town Historic District, Northwest Naito Parkway, Chinatown, Old Town, Portland, Multnomah County, Oregon, 97240, United States of America"
124,5,12,60f227bbd73a43f9aa1a9b5ae442fe40,45.51946243,-122.6795143,SW Morrison at Pioneer Courthouse Sq.,"640, Southwest Broadway, Portland Downtown, Portland, Multnomah County, Oregon, 97205, United States of America"
125,9,2,790d065d6ac06bad04ecf3621b5afb45,45.51803412,-122.6755071,SW 3rd at Morrison,"Mohawk Building, Southwest Morrison Street, Portland Downtown, Portland, Multnomah County, Oregon, 97204, United States of America"
126,5,12,8cfac55a48b764990a04ba2f05bd8f31,45.5211726,-122.6763654,SW 5th at Oak,"Care Oregon, 315, Southwest 5th Avenue, Portland Downtown, Portland, Multnomah County, Oregon, 97204, United States of America"
127,16,2,b5d1367da4cf26c62def6bedb702d67e,45.54179953,-122.6614845,NE MLK at Knott,"2650, Northeast Martin Luther King Junior Boulevard, Albina, Eliot, Portland, Multnomah County, Oregon, 97212, United States of America"
128,14,2,c7c0115ff77169b82900afef2a706186,45.52247868,-122.6732969,SW 3rd at Ankeny,"Portland Skidmore/Old Town Historic District, Northwest Naito Parkway, Chinatown, Old Town, Portland, Multnomah County, Oregon, 97240, United States of America"
129,8,12,e1672b81b75d6af4c0c65ac69c2d79b7,45.51898132,-122.6812685,SW Yamhill at Director Park,"Park Avenue West, Southwest Yamhill Street, Portland Downtown, Swan Island, Portland, Multnomah County, Oregon, 97204, United States of America"
130,0,14,9a22094d7f20fee8823ae3911fd16675,45.53434532,-122.6848841,NW Raleigh at 13th,"1321, Northwest Raleigh Street, Pearl District, Portland, Multnomah County, Oregon, 97209, United States of America"
131,5,2,2bcea60f3c94ba193667705e62562964,45.5120668,-122.6536974,SE 12th Ave at Hawthorne,"1505, Southeast 12th Avenue, Ladd's Addition, Hosford-Abernethy, Portland, Multnomah County, Oregon, 97214, United States"
132,7,2,1b7d1fbe2114812e79a18b54767d0138,45.5200329,-122.7061544,SW Rose Garden Way (Washington Park),"International Rose Test Garden, Southwest Rose Garden Way, Arlington Heights, Portland, Metro, Multnomah County, Oregon, 97205, United States"
133,7,1,7fce2a697fbf444c2e48d794f208039e,45.5041321,-122.5451016,SE Division at 115th ave,"Price Is Right Cigarettes, 11518, Southeast Division Street, Powellhurst, Powellhurst-Gilbert, Portland, Multnomah County, Oregon, 97266, United States"
134,1,6,e322454165e7250f1c85e196306e9b6f,45.52384,-122.673508,NW 3rd at Couch,"105 NW 3rd Ave, Portland, OR 97209, United States"
135,7,0,53907fa97eeb30ff2ca94206b115e4e0,45.526473,-122.6026943,NE Glisan at 60th,"A & L Sports Pub, 5933, Northeast Glisan Street, North Tabor, Portland, Metro, Oregon, 97213, United States"
136,5,3,bac2cc03ac03f7334a1cbeaf0425e63b,45.5891923,-122.7389314,Roosevelt HS Bike Corral,"Roosevelt High School, 6941, North Central Street, Saint Johns, Portland, Multnomah County, Oregon, 97203, United States"
137,3,2,31c698cd1943b9276e60610063504913,45.5152252,-122.6783454,SW 4th at Madison,"Multnomah County Court House, 1021, Southwest 4th Avenue, Pioneer Place, Portland, Multnomah County, Oregon, 97204, United States of America"
138,2,2,f86a5a4b0f8472866cab8fdefb0099c6,45.5127694,-122.6834745,Lincoln Hall,"Portland State University, 724, South Hooker Street, South Portland, Portland, Multnomah County, Oregon, 97201, United States"
139,0,3,98d2cf9eb5e44ac0156ac6b0d5dda5d4,45.5105937,-122.6854322,Shattuck Hall,"Portland State University, 724, South Hooker Street, South Portland, Portland, Multnomah County, Oregon, 97201, United States"
140,5,4,32842ad9ce766a74915a33b8568e0c78,45.5229692,-122.6790213,W Burnside at SW Park Ave,"Mark O. Hatfield Building, West Burnside Street, Downtown, Portland, Multnomah County, Oregon, 97240, United States"
141,0,13,fc384e1781ccea99cbc6075769be1785,45.491114,-122.648666,SE 17th Ave at Mall St,"Southeast 17th Avenue & Holgate Boulevard, Southeast 17th Avenue, Brooklyn, Portland, Multnomah County, Oregon, 97202, United States"
142,9,0,5835f3820c71bac4b561b7d0de238d62,45.5664147,-122.6607857,NE Ainsworth at Grand Ave,"466, Northeast Ainsworth Street, King, Portland, Metro, Oregon, 97211, United States"
143,6,0,acaa50ad356867b5edbf60a7c7fd97e0,45.5696768,-122.6820685,N Interstate at Rosa Parks Way,"North Interstate Avenue, Arbor Lodge, Portland, Multnomah County, Oregon, 97217, United States"
144,0,14,52be4f3bc912a91c6e1d79d4afcdd007,45.5717805,-122.6564844,NE Dekum at Oneonta St,"909, Northeast Dekum Street, Woodlawn, Portland, Metro, Multnomah County, Oregon, 97211, United States of America"
145,4,4,b7d72d906d86a8c574ba64b6ebde3d61,45.5517567,-122.5398468,NE Shaver west of 122nd Ave (Parkrose HS),"Parkrose Middle School, 11800, Northeast Shaver Street, Parkrose, Portland, Multnomah County, Oregon, 97220, United States"
146,2,0,b7d8aa276ddfd6b3b7474c3b99e6435c,45.5627673,-122.6598278,NE Killingsworth at 6th Ave,"Keys Lounge, 533, Northeast Killingsworth Street, King, Portland, Multnomah County, Oregon, 97211, United States of America"
147,7,2,bff87c258d53cb09dea74b4abc153931,45.5590714,-122.646602,NE Alberta at 18th,"Zilla Saké, 1806, Northeast Alberta Street, Alberta, Vernon, Portland, Metro, Multnomah County, Oregon, 97211, United States"
148,11,0,46566f676b5eb5c718def54558aa88dd,45.5335216,-122.5582468,NE Halsey at 102nd,"Arco, Northeast Halsey Street, Parkrose Heights, Portland, Multnomah County, Oregon, 97220, United States of America"
149,4,1,f6c9a6f69d5f037683a87489a3348162,45.576983,-122.6819395,N Interstate Ave at Lombard,"North Lombard Transit Center, North Interstate Avenue, Arbor Lodge, Portland, Metro, Multnomah County, Oregon, 97217, United States of America"
150,6,0,e21bd841d52d00ea4b37a5ac03060098,45.5477847,-122.6812779,N Fremont at Interstate Ave,"1399, North Fremont Street, Overlook, Portland, Multnomah County, Oregon, 97227, United States"
151,2,0,eb6d39f04cf03b2e96aea16ffc522696,45.4950271,-122.6076627,SE Foster at 54th Ave,"Foster Burger, 5339, Southeast Foster Road, Creston-Kenilworth, Portland, Metro, Multnomah County, Oregon, 97206, United States of America"
152,4,0,2c127af51fafcd80b7ab7d967940a890,45.5140185,-122.5642134,SE 96th Ave at Main,"Portland Adventist Academy, 1500, Southeast 96th Avenue, Russellville, Hazelwood, Portland, Metro, Multnomah County, Oregon, 97216, United States of America"
153,8,0,79b9b4cdbf83037391b2e81116a78eca,45.5311,-122.56249,NE 99th at Multnomah St,"The Oregon Clinic, Gateway Transit Center, Gateway, Hazelwood, Portland, Multnomah County, Oregon, 97220, United States of America"
154,0,7,337f16a3d0ad1f99dd19cc3c2af39590,45.5653576,-122.5887471,Cully Park,"Northeast 72nd Avenue Community Garden, Northeast 72nd Avenue, Cully, Portland, Multnomah County, Oregon, 97218, United States"
155,6,0,0cd14a3fdaf26da01a230fb29444b9b0,45.5191725,-122.5822778,SE Stark at 79th Ave,"7901, Southeast Stark Street, Montavilla, Portland, Metro, Multnomah County, Oregon, 97215, United States"
156,3,3,3b7426828061353bfeee2a15a1054bf0,45.584012,-122.6867319,N Denver at Interstate Ave,"8416, North Denver Avenue, Kenton, Portland, Multnomah County, Oregon, 97217, United States"
157,3,1,ebbf9c59c3a9cca2f97caa4b33cd817e,45.5664345,-122.6205956,NE Ainsworth at 42nd Ave,"4125, Northeast Ainsworth Street, Concordia, Portland, Metro, Multnomah County, Oregon, 97211, United States"
158,4,1,9d22f1ef2c4b0498739551ef3696b6bc,45.5760937,-122.7290524,N Willamette Blvd at Portsmouth,"5315, North Willamette Boulevard, University Park, Portland, Multnomah County, Oregon, 97203, United States"
159,12,0,b2199b5f714cd1fa5942a27166b29686,45.53577751,-122.620613,NE 41st at Sandy Blvd (Hollywood Theatre),"Hollywood Theatre, 4122, Northeast Sandy Boulevard, Hollywood, Portland, Multnomah County, Oregon, 97212, United States of America"
160,5,1,2ba74456ff3d238872a0e2fa53d8de3a,45.5103826,-122.6672484,Kerr Bikes/Adaptive BIKETOWN,"Kerr Bikes, Vera Katz Eastbank Esplanade, Hosford-Abernethy, Portland, Multnomah County, Oregon, 97258, United States"
161,0,6,560d84a44536683445519ff638685c84,45.5554316,-122.5890544,NE Prescott at 72nd Ave,"7151, Northeast Prescott Street, Roseway, Portland, Metro, Multnomah County, Oregon, 97218, United States of America"
162,7,0,c0de542c3a4974c21698635ea73c7ec4,45.5842278,-122.7460359,N Willamette at Buchanan,"Cathedral, 7530, North Willamette Boulevard, Cathedral Park, Portland, Multnomah County, Oregon, 97203, United States"
163,12,2,50f9f052de9f8770c34656722a719c0d,45.5159726,-122.6791195,SW 5th at Main,"1116, Southwest 5th Avenue, University District, Downtown, Portland, Multnomah County, Oregon, 97204, United States"
164,5,0,53c05f642caf0f65724ab6f2f3165914,45.5482433,-122.6409548,NE Fremont at 24th,"Union Bank, 2416, Northeast Fremont Street, Alameda, Portland, Metro, Multnomah County, Oregon, 97212, United States of America"
165,3,0,bd3cf436c20ce36ce963a256c848b2a8,45.5130553,-122.6877767,Epler Hall,"Portland State University, 724, South Hooker Street, South Portland, Portland, Multnomah County, Oregon, 97201, United States"
166,2,2,55ec1925f3b9a770e01144d599424a93,45.5127415,-122.6860864,PSU SRTC,"Portland State University, 724, South Hooker Street, South Portland, Portland, Multnomah County, Oregon, 97201, United States"
167,9,0,d1e6b0412c94f268b052f53e41c63699,45.4994679,-122.6854443,OHSU Marquam Hill,"Oregon Health & Science University, Marquam Trail, Marquam Hill, Homestead, Portland, Multnomah County, Oregon, 97239, United States"
168,3,0,4e95573860794592c5646cda76a4243f,45.5604984,-122.6621038,NE Sumner at MLK,"301, Northeast Sumner Street, King, Portland, Metro, Multnomah County, Oregon, 97211, United States of America"
169,1,0,b114516bbb008515fdd7086f4b043c91,45.5081532,-122.5978065,SE 64th at Lincoln St,"Southeast Lincoln Street, Mount Tabor, Portland, Metro, Multnomah County, Oregon, 97215, United States of America"
170,5,0,d2b8063f7ed90841c76700329eeaeb31,45.4902606,-122.5785721,SE Holgate at 82nd Ave,"8201, Southeast Holgate Boulevard, Lents, Portland, Metro, Multnomah County, Oregon, 97266, United States of America"
171,3,2,1d07b9f1c19f46b434ee5a9431f5ed56,45.5237418,-122.6703424,NW Naito at Couch,"Portland Skidmore/Old Town Historic District, Southwest Harvey Milk Street, Downtown, Portland, Multnomah County, Oregon, 97204, United States"
172,3,0,9d6ff099173578c5898e96f8fcea6791,45.5739428,-122.7203393,N Willamette Blvd at Harvard St,"North Willamette & Harvard, North Willamette Boulevard, University Park, Portland, Multnomah County, Oregon, 97217, United States"
173,3,2,d9e52328d8653bcf514d1fc59e67ef9e,45.5420646,-122.6308254,NE Knott at 33rd,"USPS, Northeast Knott Street, Grant Park, Portland, Metro, Multnomah County, Oregon, 97212, United States of America"
174,5,0,a9452b16db14bc342d8bbbe20651a341,45.5699526,-122.695712,N Rosa Parks at Greeley,"Chevron, 2809, North Rosa Parks Way, Arbor Lodge, Portland, Metro, Multnomah County, Oregon, 97217, United States of America"
175,5,4,c29c8cb887dba07391bb8f3b91184997,45.5225034,-122.557861,E Burnside at 102nd,"10223, East Burnside Street, Russellville, Hazelwood, Portland, Multnomah County, Oregon, 97216, United States of America"
176,5,4,14da9881a12fce97d8e34edbfee781f2,45.5464321,-122.5933109,NE 68th at Sandy,"3236, Northeast 68th Avenue, Roseway, Portland, Multnomah County, Oregon, 97213, United States of America"
177,0,4,0402285cefd2a34e2898a1c0edc9ab38,45.5590435,-122.6340066,NE Alberta at 31st Ave,"Kargi Gogo, 3039, Northeast Alberta Street, Concordia, Portland, Metro, Multnomah County, Oregon, 97211, United States of America"
178,12,3,5d38e0dad85fa08193fc95832cf5e6c5,45.5372206,-122.6875394,NW Front at 17th,"2016, Northwest Front Avenue, Slabtown, Northwest District, Portland, Multnomah County, Oregon, 97209, United States"
179,2,2,019f27f78942837d1f517001804c351c,45.5114539,-122.6856399,Millar Library,"Portland State University, 724, South Hooker Street, South Portland, Portland, Multnomah County, Oregon, 97201, United States"
180,5,1,3515f7d013b265295b2923d1cbcbaf83,45.5840852,-122.7194481,N Willis Blvd at N Courtenay Ave,"César Estrada Chávez School, North Willis Boulevard, Portsmouth, Portland, Multnomah County, Oregon, 97203, United States"
181,6,0,f82bb01fd71f1158f0aba6167d4c046c,45.5268753,-122.5377007,NE 122nd Ave at Glisan St,"Northeast 122nd Avenue, Hazelwood, Portland, Multnomah County, Oregon, 97216, United States"
182,9,3,a60045b2d5c3e4a5ca815bec626ee721,45.4863971,-122.5889343,SE Foster at 72nd,"Portland Mercado Food Carts, Southeast Foster Road, Arleta, Mount Scott-Arleta, Portland, Multnomah County, Oregon, 97206, United States of America"
183,9,0,f0298ff55aadc92d9f5577372493546b,45.5849334,-122.7309533,N Lombard at N Fortune,"New Seasons Market, 6300, North Lombard Street, University Park, Portland, Multnomah County, Oregon, 97203, United States"
184,8,1,e08c6c8dc7849dede611d20ac7624a17,45.5445104,-122.5799572,NE Siskiyou at 81st Ave,"8055, Northeast Siskiyou Street, Roseway, Portland, Multnomah County, Oregon, 97213, United States"
185,6,2,8d86f4fdb5da284a755eb40156665e1d,45.5901519,-122.7547835,N Lombard at Burlington,"8608, North Lombard Street, Saint Johns, Portland, Multnomah County, Oregon, 97203, United States"
186,8,0,b7ecdf15de39e5672c3fb686956d96cc,45.55862047843104,-122.5638759,NE Sandy at 96th,"Parkrose/Sumner, 9525, Northeast Sandy Boulevard, Parkrose, Portland, Multnomah County, Oregon, 97220, United States"
187,6,4,44f512306f09cf359a6a2ee62d5fe71d,45.511907,-122.6294804,SE 34th at Hawthorne,"3412, Southeast Hawthorne Boulevard, Belmont, Sunnyside, Portland, Multnomah County, Oregon, 97214, United States of America"
188,6,0,11e30b65fdbfc7fdbee67fb08546ee6a,45.4970894,-122.686551,Doernbecher Children's Hospital,"Oregon Health & Science University, Ross Island Bridge, Corbett, South Portland, Portland, Multnomah County, Oregon, 97258, United States"
189,17,6,6b5b108c716a6e0e2bb75030e3b07a3c,45.51184309,-122.68372,SW Broadway at Smith Memorial Student Union,"Portland State University, Robert Hugh Baldock Freeway, South Portland, Portland, Multnomah County, Oregon, 97258, United States of America"
190,8,1,53c227ed16e22bd58c7fad26e525ae60,45.5886277,-122.7157775,N Trenton at N Newman,"4720, North Trenton Street, New Columbia, Portsmouth, Portland, Multnomah County, Oregon, 97203, United States"
191,15,1,d43de6ae792125b444323fb614054823,45.5239729,-122.6932457,NW 20th Pl (Fred Meyer),"Fred Meyer, 100, Northwest 20th Place, Goose Hollow, Portland, Multnomah County, Oregon, 97209, United States of America"
192,9,0,4fd36305368855362acc9f4bea9dd492,45.5868448,-122.7591351,N Pittsburg at N Crawford,"6698, North Pittsburg Avenue, Cathedral Park, Portland, Multnomah County, Oregon, 97203, United States"
193,4,0,12297179f7aa83402a47cdb40f4d370d,45.5220396,-122.537573,SE 122nd at Burnside,"E 122nd/Menlo Park, East Burnside Street, Hazelwood, Portland, Multnomah County, Oregon, 97216, United States"
194,5,0,89e76d5f1961b7e4b716b585cf88d29d,45.5591179,-122.6535114,NE Alberta at 12th,"Donny Vegas, 1203, Northeast Alberta Street, King, Portland, Metro, Multnomah County, Oregon, 97211, United States of America"
195,7,0,eb8d3807f8a2b85591d213a3ff532b68,45.5510308,-122.5814223,NE Failing St at 79th Ave,"7910, Northeast Failing Street, Roseway, Portland, Multnomah County, Oregon, 97213, United States"
196,9,0,9d75c0a99ceae43c203fd2a57a381f34,45.5257231,-122.6854375,NW Flanders at 14th Ave,"Biketown PDX NW Flanders at 14th, Northwest Flanders Street, Pearl District, Portland, Multnomah County, Oregon, 97209, United States"
197,16,0,914171dc03b1c084a6c2777707c2bde8,45.52556242,-122.6892561,NW 18th at Flanders,"Alphabet Historic District, Northwest 24th Avenue, Northwest District, Portland, Multnomah County, Oregon, 97210, United States of America"
198,5,0,5345d346649ea167d4aabafe98602451,45.5625479,-122.6848349,N Concord Ave at Killingsworth St,"5425, North Concord Avenue, Overlook, Portland, Multnomah County, Oregon, 97217, United States"
199,3,6,fc231d858e8d8c49be078f4ad186159a,45.52871176,-122.674166,NW Naito at Ironside,"Northwest Naito at Ironside, Northwest Naito Parkway, Chinatown, Old Town, Portland, Multnomah County, Oregon, 97208, United States of America"
200,3,3,800f95ca22655dbd3f14d8baa7bca45d,45.5264482,-122.583548,NE 78th at Glisan,"City Blessing Church, 450, Northeast 78th Avenue, Montavilla, Portland, Multnomah County, Oregon, 97213, United States"
201,6,1,8de330ad9843ce234abdc86163fb4f12,45.50509011,-122.57900777,SE Division at 82nd,"Bank of the West, 8135, Southeast Division Street, South Tabor, Portland, Multnomah County, Oregon, 97206, United States of America"
202,5,4,7dd03adea60cf9f3943ba59ef955d671,45.5935627,-122.7354239,N Midway at Fessenden St,"9706, North Midway Avenue, Saint Johns, Portland, Multnomah County, Oregon, 97203, United States"
203,6,0,182c4a57d9fa9c69bfa6c63df3380c5e,45.5190613,-122.5584874,SE Stark at 102nd,"10115, Southeast Stark Street, Russellville, Mill Park, Portland, Multnomah County, Oregon, 97216, United States of America"
204,7,0,c41e56edc57baeb87364bd217abd624c,45.5337829,-122.5788583,NE 82nd at Jonesmore,"Days Inn Portland Central, 1530, Northeast 82nd Avenue, Madison South, Portland, Multnomah County, Oregon, 97220, United States"
205,5,3,59ebeb7aed8648baaf8eec55efcd23fa,45.5446211,-122.667667,N Morris at Vancouver,"Dawson Park Apartments, 101, North Morris Street, Albina, Eliot, Portland, Multnomah County, Oregon, 97227, United States of America"
206,12,1,3268d2b396badaead3146e6a9f3e95c6,45.53344,-122.55386,NE Halsey St at 106th,"10529, Northeast Halsey Street, Parkrose Heights, Portland, Multnomah County, Oregon, 97220, United States of America"
207,4,1,485cbb59784fc600b396b938f767c042,45.569917,-122.6744197,N Rosa Parks Way at Albina,"North Rosa Parks Way & Albina, North Rosa Parks Way, Piedmont, Portland, Metro, Multnomah County, Oregon, 97217, United States"
208,0,8,7b9eab31f79012ba6d051cc526437871,45.5628283,-122.6093459,NE Killingsworth at NE 52nd,"5195, Northeast Killingsworth Street, Cully, Portland, Multnomah County, Oregon, 97218, United States"
209,1,3,c8e5c5ecd586c14667655558d11fd7b8,45.5092949,-122.6846036,Broadway Residence Hall,"Portland State University, 724, South Hooker Street, South Portland, Portland, Multnomah County, Oregon, 97201, United States"
210,4,2,72d41621bd2293fc5885170f696adc76,45.4976098,-122.5818846,SE 79th at Powell Blvd,"3415, Southeast 79th Avenue, South Tabor, Portland, Multnomah County, Oregon, 97206, United States"
211,3,2,f3c392a4db8a335d0571fb40089f81d8,45.519326,-122.5468687,SE 113th at Stark,"474, Southeast 113th Avenue, Hazelwood, Portland, Metro, Oregon, 97216, United States"
212,0,4,bc536f244bfffde47541559a0c342ec9,45.5870144,-122.6951643,N Burrage Ave & N Houghton St,"Kenton Community Garden, North Houghton Street, Kenton, Portland, Multnomah County, Oregon, 97217, United States"
213,7,0,948be5f98737151fdef87404b039edec,45.5616203,-122.6616835,NE Emerson at MLK Blvd,"300, Northeast Emerson Street, Humboldt, Portland, Metro, Multnomah County, Oregon, 97211, United States"
214,6,0,e1d7ff3051675cd266095b8a38d9d763,45.4990782,-122.6837991,Casey Eye Institute,"Oregon Health & Science University, Ross Island Bridge, Corbett, South Portland, Portland, Multnomah County, Oregon, 97258, United States"
215,7,0,0687e168a50eb80c90261418720a64d7,45.5014076,-122.5788622,SE Woodward at 82nd Ave,"8135, Southeast Woodward Street, South Tabor, Portland, Multnomah County, Oregon, 97206, United States"
216,0,5,4cbcb02de59a25b3a140d11acf6c981f,45.5258454,-122.6814197,NW Flanders at 10th,"1010, Northwest Flanders Street, Pearl District, Portland, Multnomah County, Oregon, 97209, United States"
217,2,14,1842cc45329083f44af3d0df83d398ba,45.53496857,-122.653631,NE Broadway at 12th,"Safeway, 1100, Northeast Broadway, Lloyd District, Portland, Multnomah County, Oregon, 97232, United States of America"
218,8,0,270996a8349983fbb7e344c21a2f852b,45.4900193,-122.5688739,SE 92nd at SE Holgate,"Vavirek Field, Southeast Holgate Boulevard, Lents, Portland, Multnomah County, Oregon, 97266, United States"
219,6,0,cdd1df45185b8a33a5332a9bf47bcb61,45.5205931,-122.637238,SE 28th at Pine,"Bamboo Sushi, Southeast 28th Avenue, Kerns, Portland, Multnomah County, Oregon, 97214, United States of America"
220,8,1,3a265023bd5ae3d13e92019495357fa1,45.588297,-122.7380898,N Central at N Ida,"Roosevelt High School, 6941, North Central Street, Saint Johns, Portland, Multnomah County, Oregon, 97203, United States"
221,0,10,a86844b0bd549fce7f4a7689a3d89ffe,45.4988159,-122.6540982,SE Milwaukie at Pershing,"1135, Southeast Pershing Street, Brooklyn, Portland, Multnomah County, Oregon, 97202, United States"
222,5,2,55eb9515100a078b961940c8bc7da02d,45.4797127,-122.5686256,SE 92nd at Foster,"Southeast 92nd Avenue, Lents Town Center, Lents, Portland, Multnomah County, Oregon, 97266, United States of America"
223,4,1,f9d6d77f882d406be5b9ceb8f8eb38fb,45.5422831,-122.6037107,NE Alameda at 58th Ave,"Rose City Park United Methodist Church, 5830, Northeast Alameda Street, Rose City Park, Portland, Metro, Multnomah County, Oregon, 97213, United States of America"
224,8,6,f284867ed6ffe96191bc8622dc779225,45.51158277,-122.682281,Urban Center Plaza at SW 6th,"Portland State University, Robert Hugh Baldock Freeway, South Portland, Portland, Multnomah County, Oregon, 97258, United States of America"
225,3,0,ecf26284796326e1bfdc324592d093e8,45.4941194,-122.5786536,SE 82nd Ave at SE Francis (Eastport Plaza),"Auto House, Southeast Francis Street, Foster-Powell, Portland, Multnomah County, Oregon, 97266, United States"
226,3,0,2dc0f146ae5097b96362eecf369ccaac,45.5181656,-122.639145,Lone Fir Cemetery,"SE Morrison St, Portland, OR 97214, United States"
227,6,0,8f0b107a708345a47f3e808b61b2f4a3,45.55891838,-122.6824003,N Alberta Street at Interstate Ave,"4915, North Interstate Avenue, Overlook, Portland, Multnomah County, Oregon, 97217, United States of America"
228,1,5,c274b9f8226b51f17d11626febc41f26,45.5226089,-122.5804512,SE 81st Ave at E Burnside St,"23, Southeast 81st Avenue, Montavilla, Portland, Multnomah County, Oregon, 97215, United States"
229,8,1,5b6303c6830c413b47350ae73522bdce,45.5808002,-122.7133655,N Winchell at N Woolsey,"4425 N Winchell St, Portland, OR 97203, United States"
230,7,6,a9f5bd736c76f0a2aa89125c2655f6ca,45.51788377,-122.6920402,SW 18th at Jefferson,"Go Food Stores, 1720, Southwest Jefferson Street, Goose Hollow, Portland, Multnomah County, Oregon, 97201, United States of America"
231,1,8,1bb4a0112af9bed8915e35340db43fcc,45.4902649,-122.5979411,SE Holgate at SE Foster,"6315 SE Holgate Blvd, Portland, OR 97206, United States"
232,8,0,c47733850a97c0e4a2fa852ec03de848,45.5965621,-122.7478995,N Charleston at N Fessenden,"9505 N Charleston Ave, Portland, OR 97203, United States"
233,10,0,71d1631fc898a831f4244409608e9493,45.5178988,-122.6600522,SE Alder at 6th,"East Portland Grand Avenue Historic District, Southeast Stark Street, Buckman, Portland, Multnomah County, Oregon, 97204, United States of America"
234,1,4,87e039f7e0de4fb684c6405bc9b14f5f,45.5181026,-122.6576498,SE 8th at Alder,"737 SE Alder St, Portland, OR 97214, United States"
235,8,1,013f3d702a2aa7c3898a54be63c5a021,45.4989471,-122.6376686,Cleveland High School,"2804 SE Franklin St, Portland, OR 97202, United States"
236,4,2,544d22c8674963f49f89c45c532adc67,45.5523585,-122.6255876,NE 37th at NE Shaver,"4030 NE 37th Ave, Portland, OR 97211, United States"
237,1,5,5f03104460d47f692ffcdde3b8ed1ac4,45.5703663,-122.6360426,NE 29th Ave (U of O),"6521 NE 29th Ave, Portland, OR 97211, United States"
